{
  "type": "FeatureCollection",
  "features": [
    {
      "type": "Feature",
      "properties": {
        "norad_id": 28890,
        "name": "BEIJING 1",
        "group": "dmc",
        "lat": -3.263388413194245,
        "lon": -61.50429588252283,
        "alt_km": 679.5946507476147,
        "timestamp": "2025-12-17T10:52:54.015582+00:00",
        "meta_object_name": "BEIJING 1",
        "meta_object_id": "2005-043A",
        "meta_epoch": "2025-12-16T22:33:40.899744",
        "meta_mean_motion": 14.63370365,
        "meta_eccentricity": 0.0015509,
        "meta_inclination": 98.2647,
        "meta_ra_of_asc_node": 118.4562,
        "meta_arg_of_pericenter": 128.6809,
        "meta_mean_anomaly": 231.5783,
        "meta_ephemeris_type": 0,
        "meta_classification_type": "U",
        "meta_norad_cat_id": 28890,
        "meta_element_set_no": 999,
        "meta_rev_at_epoch": 7399,
        "meta_bstar": 6.5607372e-05,
        "meta_mean_motion_dot": 2.91e-06,
        "meta_mean_motion_ddot": 0,
        "tle_line1": "1 28890U 05043A   25350.94005671  .00000291  00000+0  65607-4 0  9995",
        "tle_line2": "2 28890  98.2647 118.4562 0015509 128.6809 231.5783 14.63370365 73991"
      },
      "geometry": {
        "type": "Point",
        "coordinates": [
          -61.50429588252283,
          -3.263388413194245
        ]
      }
    },
    {
      "type": "Feature",
      "properties": {
        "norad_id": 33320,
        "name": "HUANJING 1A (HJ-1A)",
        "group": "dmc",
        "lat": -9.73074248859413,
        "lon": 158.23406345715298,
        "alt_km": 636.496229916248,
        "timestamp": "2025-12-17T10:52:54.015606+00:00",
        "meta_object_name": "HUANJING 1A (HJ-1A)",
        "meta_object_id": "2008-041A",
        "meta_epoch": "2025-12-17T00:18:58.960224",
        "meta_mean_motion": 14.83410296,
        "meta_eccentricity": 0.00198903,
        "meta_inclination": 97.6538,
        "meta_ra_of_asc_node": 339.1336,
        "meta_arg_of_pericenter": 21.0207,
        "meta_mean_anomaly": 339.182,
        "meta_ephemeris_type": 0,
        "meta_classification_type": "U",
        "meta_norad_cat_id": 33320,
        "meta_element_set_no": 999,
        "meta_rev_at_epoch": 93139,
        "meta_bstar": 0.00019127504,
        "meta_mean_motion_dot": 1.524e-05,
        "meta_mean_motion_ddot": 0,
        "tle_line1": "1 33320U 08041A   25351.01318241  .00001524  00000+0  19128-3 0  9995",
        "tle_line2": "2 33320  97.6538 339.1336 0019890  21.0207 339.1820 14.83410296931397"
      },
      "geometry": {
        "type": "Point",
        "coordinates": [
          158.23406345715298,
          -9.73074248859413
        ]
      }
    },
    {
      "type": "Feature",
      "properties": {
        "norad_id": 33321,
        "name": "HUANJING 1B (HJ-1B)",
        "group": "dmc",
        "lat": 40.33916979048868,
        "lon": -23.30544649799156,
        "alt_km": 592.1379998185084,
        "timestamp": "2025-12-17T10:52:54.015620+00:00",
        "meta_object_name": "HUANJING 1B (HJ-1B)",
        "meta_object_id": "2008-041B",
        "meta_epoch": "2025-12-16T23:21:46.190592",
        "meta_mean_motion": 14.82832828,
        "meta_eccentricity": 0.0038148,
        "meta_inclination": 97.64,
        "meta_ra_of_asc_node": 342.7814,
        "meta_arg_of_pericenter": 62.2771,
        "meta_mean_anomaly": 298.2305,
        "meta_ephemeris_type": 0,
        "meta_classification_type": "U",
        "meta_norad_cat_id": 33321,
        "meta_element_set_no": 999,
        "meta_rev_at_epoch": 93140,
        "meta_bstar": 0.00010502034,
        "meta_mean_motion_dot": 8.09e-06,
        "meta_mean_motion_ddot": 0,
        "tle_line1": "1 33321U 08041B   25350.97345128  .00000809  00000+0  10502-3 0  9996",
        "tle_line2": "2 33321  97.6400 342.7814 0038148  62.2771 298.2305 14.82832828931400"
      },
      "geometry": {
        "type": "Point",
        "coordinates": [
          -23.30544649799156,
          40.33916979048868
        ]
      }
    },
    {
      "type": "Feature",
      "properties": {
        "norad_id": 33446,
        "name": "YAOGAN-4",
        "group": "dmc",
        "lat": -49.030608606748864,
        "lon": -69.26986778537001,
        "alt_km": 618.394754940713,
        "timestamp": "2025-12-17T10:52:54.015633+00:00",
        "meta_object_name": "YAOGAN-4",
        "meta_object_id": "2008-061A",
        "meta_epoch": "2025-12-16T18:54:29.509920",
        "meta_mean_motion": 14.82694666,
        "meta_eccentricity": 0.00133305,
        "meta_inclination": 97.9187,
        "meta_ra_of_asc_node": 280.8474,
        "meta_arg_of_pericenter": 309.2264,
        "meta_mean_anomaly": 50.7765,
        "meta_ephemeris_type": 0,
        "meta_classification_type": "U",
        "meta_norad_cat_id": 33446,
        "meta_element_set_no": 999,
        "meta_rev_at_epoch": 91863,
        "meta_bstar": 0.00016727314,
        "meta_mean_motion_dot": 1.297e-05,
        "meta_mean_motion_ddot": 0,
        "tle_line1": "1 33446U 08061A   25350.78784155  .00001297  00000+0  16727-3 0  9999",
        "tle_line2": "2 33446  97.9187 280.8474 0013330 309.2264  50.7765 14.82694666918631"
      },
      "geometry": {
        "type": "Point",
        "coordinates": [
          -69.26986778537001,
          -49.030608606748864
        ]
      }
    },
    {
      "type": "Feature",
      "properties": {
        "norad_id": 35681,
        "name": "DEIMOS-1",
        "group": "dmc",
        "lat": -50.36509878090139,
        "lon": 161.25493100142103,
        "alt_km": 653.1675384833488,
        "timestamp": "2025-12-17T10:52:54.015645+00:00",
        "meta_object_name": "DEIMOS-1",
        "meta_object_id": "2009-041A",
        "meta_epoch": "2025-12-16T23:42:55.605312",
        "meta_mean_motion": 14.74960233,
        "meta_eccentricity": 0.00026462,
        "meta_inclination": 97.7142,
        "meta_ra_of_asc_node": 151.3929,
        "meta_arg_of_pericenter": 71.8656,
        "meta_mean_anomaly": 288.2842,
        "meta_ephemeris_type": 0,
        "meta_classification_type": "U",
        "meta_norad_cat_id": 35681,
        "meta_element_set_no": 999,
        "meta_rev_at_epoch": 88002,
        "meta_bstar": 0.0001105053,
        "meta_mean_motion_dot": 6.95e-06,
        "meta_mean_motion_ddot": 0,
        "tle_line1": "1 35681U 09041A   25350.98814358  .00000695  00000+0  11051-3 0  9998",
        "tle_line2": "2 35681  97.7142 151.3929 0002646  71.8656 288.2842 14.74960233880027"
      },
      "geometry": {
        "type": "Point",
        "coordinates": [
          161.25493100142103,
          -50.36509878090139
        ]
      }
    },
    {
      "type": "Feature",
      "properties": {
        "norad_id": 35683,
        "name": "UK-DMC 2",
        "group": "dmc",
        "lat": -24.28825315121059,
        "lon": 129.79394488491937,
        "alt_km": 649.1793288746439,
        "timestamp": "2025-12-17T10:52:54.015656+00:00",
        "meta_object_name": "UK-DMC 2",
        "meta_object_id": "2009-041C",
        "meta_epoch": "2025-12-16T21:58:23.988288",
        "meta_mean_motion": 14.75631208,
        "meta_eccentricity": 0.00014685,
        "meta_inclination": 97.8554,
        "meta_ra_of_asc_node": 125.6995,
        "meta_arg_of_pericenter": 94.3451,
        "meta_mean_anomaly": 265.7927,
        "meta_ephemeris_type": 0,
        "meta_classification_type": "U",
        "meta_norad_cat_id": 35683,
        "meta_element_set_no": 999,
        "meta_rev_at_epoch": 87968,
        "meta_bstar": 0.00010730491,
        "meta_mean_motion_dot": 6.83e-06,
        "meta_mean_motion_ddot": 0,
        "tle_line1": "1 35683U 09041C   25350.91555542  .00000683  00000+0  10730-3 0  9990",
        "tle_line2": "2 35683  97.8554 125.6995 0001468  94.3451 265.7927 14.75631208879680"
      },
      "geometry": {
        "type": "Point",
        "coordinates": [
          129.79394488491937,
          -24.28825315121059
        ]
      }
    },
    {
      "type": "Feature",
      "properties": {
        "norad_id": 40715,
        "name": "DMC3-FM1",
        "group": "dmc",
        "lat": -10.836697503183336,
        "lon": 36.99587650641741,
        "alt_km": 617.7075633814875,
        "timestamp": "2025-12-17T10:52:54.015667+00:00",
        "meta_object_name": "DMC3-FM1",
        "meta_object_id": "2015-032A",
        "meta_epoch": "2025-12-16T19:28:29.780256",
        "meta_mean_motion": 14.85450275,
        "meta_eccentricity": 0.00043529,
        "meta_inclination": 97.6694,
        "meta_ra_of_asc_node": 217.8556,
        "meta_arg_of_pericenter": 306.3409,
        "meta_mean_anomaly": 53.7404,
        "meta_ephemeris_type": 0,
        "meta_classification_type": "U",
        "meta_norad_cat_id": 40715,
        "meta_element_set_no": 999,
        "meta_rev_at_epoch": 56283,
        "meta_bstar": 0.00013456286,
        "meta_mean_motion_dot": 1.109e-05,
        "meta_mean_motion_ddot": 0,
        "tle_line1": "1 40715U 15032A   25350.81145579  .00001109  00000+0  13456-3 0  9995",
        "tle_line2": "2 40715  97.6694 217.8556 0004352 306.3409  53.7404 14.85450275562831"
      },
      "geometry": {
        "type": "Point",
        "coordinates": [
          36.99587650641741,
          -10.836697503183336
        ]
      }
    },
    {
      "type": "Feature",
      "properties": {
        "norad_id": 40716,
        "name": "DMC3-FM2",
        "group": "dmc",
        "lat": 69.24635685399637,
        "lon": -160.9260028437474,
        "alt_km": 607.28886203408,
        "timestamp": "2025-12-17T10:52:54.015678+00:00",
        "meta_object_name": "DMC3-FM2",
        "meta_object_id": "2015-032B",
        "meta_epoch": "2025-12-16T21:37:53.078592",
        "meta_mean_motion": 14.8544846,
        "meta_eccentricity": 0.00050451,
        "meta_inclination": 97.6752,
        "meta_ra_of_asc_node": 219.389,
        "meta_arg_of_pericenter": 311.3852,
        "meta_mean_anomaly": 48.6929,
        "meta_ephemeris_type": 0,
        "meta_classification_type": "U",
        "meta_norad_cat_id": 40716,
        "meta_element_set_no": 999,
        "meta_rev_at_epoch": 56284,
        "meta_bstar": 3.5664861e-05,
        "meta_mean_motion_dot": 2.56e-06,
        "meta_mean_motion_ddot": 0,
        "tle_line1": "1 40716U 15032B   25350.90130878  .00000256  00000+0  35665-4 0  9991",
        "tle_line2": "2 40716  97.6752 219.3890 0005045 311.3852  48.6929 14.85448460562842"
      },
      "geometry": {
        "type": "Point",
        "coordinates": [
          -160.9260028437474,
          69.24635685399637
        ]
      }
    },
    {
      "type": "Feature",
      "properties": {
        "norad_id": 40717,
        "name": "DMC3-FM3",
        "group": "dmc",
        "lat": -44.69874862966729,
        "lon": -130.76873135850093,
        "alt_km": 615.8733153062831,
        "timestamp": "2025-12-17T10:52:54.015689+00:00",
        "meta_object_name": "DMC3-FM3",
        "meta_object_id": "2015-032C",
        "meta_epoch": "2025-12-16T20:32:04.398144",
        "meta_mean_motion": 14.85434954,
        "meta_eccentricity": 0.00044303,
        "meta_inclination": 97.6805,
        "meta_ra_of_asc_node": 220.9805,
        "meta_arg_of_pericenter": 312.865,
        "meta_mean_anomaly": 47.2193,
        "meta_ephemeris_type": 0,
        "meta_classification_type": "U",
        "meta_norad_cat_id": 40717,
        "meta_element_set_no": 999,
        "meta_rev_at_epoch": 56284,
        "meta_bstar": 3.8775349e-05,
        "meta_mean_motion_dot": 2.83e-06,
        "meta_mean_motion_ddot": 0,
        "tle_line1": "1 40717U 15032C   25350.85560646  .00000283  00000+0  38775-4 0  9991",
        "tle_line2": "2 40717  97.6805 220.9805 0004430 312.8650  47.2193 14.85434954562846"
      },
      "geometry": {
        "type": "Point",
        "coordinates": [
          -130.76873135850093,
          -44.69874862966729
        ]
      }
    }
  ]
}